<?xml version="1.0" encoding="UTF-8"?>
<ndm xmlns:xsi="http://www.w3.org/2001/XMLSchema-instance" xsi:noNamespaceSchemaLocation="https://sanaregistry.org/r/ndmxml_unqualified/ndmxml-2.0.0-master-2.0.xsd">
<omm id="CCSDS_OMM_VERS" version="2.0">
<header><CREATION_DATE/><ORIGINATOR/></header><body><segment><metadata><OBJECT_NAME>KUIPER-00089</OBJECT_NAME><OBJECT_ID>2025-151U</OBJECT_ID><CENTER_NAME>EARTH</CENTER_NAME><REF_FRAME>TEME</REF_FRAME><TIME_SYSTEM>UTC</TIME_SYSTEM><MEAN_ELEMENT_THEORY>SGP4</MEAN_ELEMENT_THEORY></metadata><data><meanElements><EPOCH>2025-08-27T19:57:21.054816</EPOCH><MEAN_MOTION>15.36024659</MEAN_MOTION><ECCENTRICITY>.00059517</ECCENTRICITY><INCLINATION>51.8794</INCLINATION><RA_OF_ASC_NODE>82.4013</RA_OF_ASC_NODE><ARG_OF_PERICENTER>312.5883</ARG_OF_PERICENTER><MEAN_ANOMALY>47.4601</MEAN_ANOMALY></meanElements><tleParameters><EPHEMERIS_TYPE>0</EPHEMERIS_TYPE><CLASSIFICATION_TYPE>U</CLASSIFICATION_TYPE><NORAD_CAT_ID>64834</NORAD_CAT_ID><ELEMENT_SET_NO>999</ELEMENT_SET_NO><REV_AT_EPOCH>653</REV_AT_EPOCH><BSTAR>.13157562E-2</BSTAR><MEAN_MOTION_DOT>.46796E-3</MEAN_MOTION_DOT><MEAN_MOTION_DDOT>0</MEAN_MOTION_DDOT></tleParameters></data></segment></body></omm>
<omm id="CCSDS_OMM_VERS" version="2.0">
<header><CREATION_DATE/><ORIGINATOR/></header><body><segment><metadata><OBJECT_NAME>KUIPER-00090</OBJECT_NAME><OBJECT_ID>2025-151V</OBJECT_ID><CENTER_NAME>EARTH</CENTER_NAME><REF_FRAME>TEME</REF_FRAME><TIME_SYSTEM>UTC</TIME_SYSTEM><MEAN_ELEMENT_THEORY>SGP4</MEAN_ELEMENT_THEORY></metadata><data><meanElements><EPOCH>2025-08-27T20:06:36.959328</EPOCH><MEAN_MOTION>15.35812268</MEAN_MOTION><ECCENTRICITY>.00060936</ECCENTRICITY><INCLINATION>51.8790</INCLINATION><RA_OF_ASC_NODE>82.4394</RA_OF_ASC_NODE><ARG_OF_PERICENTER>311.2069</ARG_OF_PERICENTER><MEAN_ANOMALY>48.8392</MEAN_ANOMALY></meanElements><tleParameters><EPHEMERIS_TYPE>0</EPHEMERIS_TYPE><CLASSIFICATION_TYPE>U</CLASSIFICATION_TYPE><NORAD_CAT_ID>64835</NORAD_CAT_ID><ELEMENT_SET_NO>999</ELEMENT_SET_NO><REV_AT_EPOCH>653</REV_AT_EPOCH><BSTAR>.11606813E-2</BSTAR><MEAN_MOTION_DOT>.40922E-3</MEAN_MOTION_DOT><MEAN_MOTION_DDOT>0</MEAN_MOTION_DDOT></tleParameters></data></segment></body></omm>
<omm id="CCSDS_OMM_VERS" version="2.0">
<header><CREATION_DATE/><ORIGINATOR/></header><body><segment><metadata><OBJECT_NAME>KUIPER-00091</OBJECT_NAME><OBJECT_ID>2025-151W</OBJECT_ID><CENTER_NAME>EARTH</CENTER_NAME><REF_FRAME>TEME</REF_FRAME><TIME_SYSTEM>UTC</TIME_SYSTEM><MEAN_ELEMENT_THEORY>SGP4</MEAN_ELEMENT_THEORY></metadata><data><meanElements><EPOCH>2025-08-27T19:41:45.639168</EPOCH><MEAN_MOTION>15.36234555</MEAN_MOTION><ECCENTRICITY>.00059864</ECCENTRICITY><INCLINATION>51.8788</INCLINATION><RA_OF_ASC_NODE>82.3236</RA_OF_ASC_NODE><ARG_OF_PERICENTER>287.3471</ARG_OF_PERICENTER><MEAN_ANOMALY>72.6861</MEAN_ANOMALY></meanElements><tleParameters><EPHEMERIS_TYPE>0</EPHEMERIS_TYPE><CLASSIFICATION_TYPE>U</CLASSIFICATION_TYPE><NORAD_CAT_ID>64836</NORAD_CAT_ID><ELEMENT_SET_NO>999</ELEMENT_SET_NO><REV_AT_EPOCH>653</REV_AT_EPOCH><BSTAR>.11375928E-2</BSTAR><MEAN_MOTION_DOT>.4065E-3</MEAN_MOTION_DOT><MEAN_MOTION_DDOT>0</MEAN_MOTION_DDOT></tleParameters></data></segment></body></omm>
<omm id="CCSDS_OMM_VERS" version="2.0">
<header><CREATION_DATE/><ORIGINATOR/></header><body><segment><metadata><OBJECT_NAME>KUIPER-00092</OBJECT_NAME><OBJECT_ID>2025-151X</OBJECT_ID><CENTER_NAME>EARTH</CENTER_NAME><REF_FRAME>TEME</REF_FRAME><TIME_SYSTEM>UTC</TIME_SYSTEM><MEAN_ELEMENT_THEORY>SGP4</MEAN_ELEMENT_THEORY></metadata><data><meanElements><EPOCH>2025-08-27T19:46:25.975200</EPOCH><MEAN_MOTION>15.36326838</MEAN_MOTION><ECCENTRICITY>.00061588</ECCENTRICITY><INCLINATION>51.8783</INCLINATION><RA_OF_ASC_NODE>82.3432</RA_OF_ASC_NODE><ARG_OF_PERICENTER>296.5847</ARG_OF_PERICENTER><MEAN_ANOMALY>63.4508</MEAN_ANOMALY></meanElements><tleParameters><EPHEMERIS_TYPE>0</EPHEMERIS_TYPE><CLASSIFICATION_TYPE>U</CLASSIFICATION_TYPE><NORAD_CAT_ID>64837</NORAD_CAT_ID><ELEMENT_SET_NO>999</ELEMENT_SET_NO><REV_AT_EPOCH>774</REV_AT_EPOCH><BSTAR>.15605869E-2</BSTAR><MEAN_MOTION_DOT>.56193E-3</MEAN_MOTION_DOT><MEAN_MOTION_DDOT>0</MEAN_MOTION_DDOT></tleParameters></data></segment></body></omm>
<omm id="CCSDS_OMM_VERS" version="2.0">
<header><CREATION_DATE/><ORIGINATOR/></header><body><segment><metadata><OBJECT_NAME>KUIPER-00093</OBJECT_NAME><OBJECT_ID>2025-151Y</OBJECT_ID><CENTER_NAME>EARTH</CENTER_NAME><REF_FRAME>TEME</REF_FRAME><TIME_SYSTEM>UTC</TIME_SYSTEM><MEAN_ELEMENT_THEORY>SGP4</MEAN_ELEMENT_THEORY></metadata><data><meanElements><EPOCH>2025-08-27T19:55:50.871360</EPOCH><MEAN_MOTION>15.36084542</MEAN_MOTION><ECCENTRICITY>.00054677</ECCENTRICITY><INCLINATION>51.8803</INCLINATION><RA_OF_ASC_NODE>82.3950</RA_OF_ASC_NODE><ARG_OF_PERICENTER>301.9938</ARG_OF_PERICENTER><MEAN_ANOMALY>58.0517</MEAN_ANOMALY></meanElements><tleParameters><EPHEMERIS_TYPE>0</EPHEMERIS_TYPE><CLASSIFICATION_TYPE>U</CLASSIFICATION_TYPE><NORAD_CAT_ID>64838</NORAD_CAT_ID><ELEMENT_SET_NO>999</ELEMENT_SET_NO><REV_AT_EPOCH>653</REV_AT_EPOCH><BSTAR>.11268521E-2</BSTAR><MEAN_MOTION_DOT>.4006E-3</MEAN_MOTION_DOT><MEAN_MOTION_DDOT>0</MEAN_MOTION_DDOT></tleParameters></data></segment></body></omm>
<omm id="CCSDS_OMM_VERS" version="2.0">
<header><CREATION_DATE/><ORIGINATOR/></header><body><segment><metadata><OBJECT_NAME>KUIPER-00094</OBJECT_NAME><OBJECT_ID>2025-151Z</OBJECT_ID><CENTER_NAME>EARTH</CENTER_NAME><REF_FRAME>TEME</REF_FRAME><TIME_SYSTEM>UTC</TIME_SYSTEM><MEAN_ELEMENT_THEORY>SGP4</MEAN_ELEMENT_THEORY></metadata><data><meanElements><EPOCH>2025-08-27T19:46:11.245728</EPOCH><MEAN_MOTION>15.36328298</MEAN_MOTION><ECCENTRICITY>.00057677</ECCENTRICITY><INCLINATION>51.8797</INCLINATION><RA_OF_ASC_NODE>82.3424</RA_OF_ASC_NODE><ARG_OF_PERICENTER>301.2277</ARG_OF_PERICENTER><MEAN_ANOMALY>58.8144</MEAN_ANOMALY></meanElements><tleParameters><EPHEMERIS_TYPE>0</EPHEMERIS_TYPE><CLASSIFICATION_TYPE>U</CLASSIFICATION_TYPE><NORAD_CAT_ID>64839</NORAD_CAT_ID><ELEMENT_SET_NO>999</ELEMENT_SET_NO><REV_AT_EPOCH>653</REV_AT_EPOCH><BSTAR>.11553527E-2</BSTAR><MEAN_MOTION_DOT>.41418E-3</MEAN_MOTION_DOT><MEAN_MOTION_DDOT>0</MEAN_MOTION_DDOT></tleParameters></data></segment></body></omm>
<omm id="CCSDS_OMM_VERS" version="2.0">
<header><CREATION_DATE/><ORIGINATOR/></header><body><segment><metadata><OBJECT_NAME>KUIPER-00081</OBJECT_NAME><OBJECT_ID>2025-171A</OBJECT_ID><CENTER_NAME>EARTH</CENTER_NAME><REF_FRAME>TEME</REF_FRAME><TIME_SYSTEM>UTC</TIME_SYSTEM><MEAN_ELEMENT_THEORY>SGP4</MEAN_ELEMENT_THEORY></metadata><data><meanElements><EPOCH>2025-08-27T20:29:49.304832</EPOCH><MEAN_MOTION>15.35866510</MEAN_MOTION><ECCENTRICITY>.00051922</ECCENTRICITY><INCLINATION>51.8775</INCLINATION><RA_OF_ASC_NODE>325.9057</RA_OF_ASC_NODE><ARG_OF_PERICENTER>177.0977</ARG_OF_PERICENTER><MEAN_ANOMALY>183.0040</MEAN_ANOMALY></meanElements><tleParameters><EPHEMERIS_TYPE>0</EPHEMERIS_TYPE><CLASSIFICATION_TYPE>U</CLASSIFICATION_TYPE><NORAD_CAT_ID>65132</NORAD_CAT_ID><ELEMENT_SET_NO>999</ELEMENT_SET_NO><REV_AT_EPOCH>376</REV_AT_EPOCH><BSTAR>.88261735E-3</BSTAR><MEAN_MOTION_DOT>.31035E-3</MEAN_MOTION_DOT><MEAN_MOTION_DDOT>0</MEAN_MOTION_DDOT></tleParameters></data></segment></body></omm>
<omm id="CCSDS_OMM_VERS" version="2.0">
<header><CREATION_DATE/><ORIGINATOR/></header><body><segment><metadata><OBJECT_NAME>KUIPER-00088</OBJECT_NAME><OBJECT_ID>2025-171B</OBJECT_ID><CENTER_NAME>EARTH</CENTER_NAME><REF_FRAME>TEME</REF_FRAME><TIME_SYSTEM>UTC</TIME_SYSTEM><MEAN_ELEMENT_THEORY>SGP4</MEAN_ELEMENT_THEORY></metadata><data><meanElements><EPOCH>2025-08-27T18:57:06.387264</EPOCH><MEAN_MOTION>15.35828397</MEAN_MOTION><ECCENTRICITY>.00051483</ECCENTRICITY><INCLINATION>51.8774</INCLINATION><RA_OF_ASC_NODE>326.2251</RA_OF_ASC_NODE><ARG_OF_PERICENTER>177.9391</ARG_OF_PERICENTER><MEAN_ANOMALY>182.1617</MEAN_ANOMALY></meanElements><tleParameters><EPHEMERIS_TYPE>0</EPHEMERIS_TYPE><CLASSIFICATION_TYPE>U</CLASSIFICATION_TYPE><NORAD_CAT_ID>65133</NORAD_CAT_ID><ELEMENT_SET_NO>999</ELEMENT_SET_NO><REV_AT_EPOCH>375</REV_AT_EPOCH><BSTAR>.88776418E-3</BSTAR><MEAN_MOTION_DOT>.3118E-3</MEAN_MOTION_DOT><MEAN_MOTION_DDOT>0</MEAN_MOTION_DDOT></tleParameters></data></segment></body></omm>

</ndm>
