KUIPER-00089            
1 64834U 25151U   25239.83149369  .00046796  00000+0  13158-2 0  9994
2 64834  51.8794  82.4013 0005951 312.5883  47.4601 15.36024659  6536
KUIPER-00090            
1 64835U 25151V   25239.83792777  .00040922  00000+0  11607-2 0  9994
2 64835  51.8790  82.4394 0006093 311.2069  48.8392 15.35812268  6537
KUIPER-00091            
1 64836U 25151W   25239.82066712  .00040650  00000+0  11376-2 0  9998
2 64836  51.8788  82.3236 0005986 287.3471  72.6861 15.36234555  6533
KUIPER-00092            
1 64837U 25151X   25239.82391175  .00056193  00000+0  15606-2 0  9992
2 64837  51.8783  82.3432 0006158 296.5847  63.4508 15.36326838  7744
KUIPER-00093            
1 64838U 25151Y   25239.83044990  .00040060  00000+0  11269-2 0  9991
2 64838  51.8803  82.3950 0005467 301.9938  58.0517 15.36084542  6536
KUIPER-00094            
1 64839U 25151Z   25239.82374127  .00041418  00000+0  11554-2 0  9994
2 64839  51.8797  82.3424 0005767 301.2277  58.8144 15.36328298  6530
KUIPER-00081            
1 65132U 25171A   25239.85404288  .00031035  00000+0  88262-3 0  9993
2 65132  51.8775 325.9057 0005192 177.0977 183.0040 15.35866510  3760
KUIPER-00088            
1 65133U 25171B   25239.78965726  .00031180  00000+0  88776-3 0  9996
2 65133  51.8774 326.2251 0005148 177.9391 182.1617 15.35828397  3750
